CENTISPACE-1 GROUP 05 O*
1 69583U 26138B   26201.89304757  .00000194  00000+0  17664-3 0  9995
2 69583  55.1392 156.6792 0010947 357.1897   2.9014 14.15653441  4795
CENTISPACE-1 GROUP 05 O*
1 69584U 26138C   26201.89103488  .00000129  00000+0  14330-3 0  9999
2 69584  55.1398 156.6774 0010890 358.9632   1.1318 14.15736067  4799
CENTISPACE-1 GROUP 05 O*
1 69585U 26138D   26201.25142650 -.00000020  00000+0  67300-4 0  9991
2 69585  55.1392 158.9942 0010416 356.9650   3.1259 14.15919543  4707
CENTISPACE-1 GROUP 05 O*
1 69586U 26138E   26201.88521847 -.00000001  00000+0  77073-4 0  9997
2 69586  55.1384 156.6452 0010209 359.0703   1.0251 14.15986601  4790
CENTISPACE-1 GROUP 05 O*
1 69587U 26138F   26201.81627377  .00000029  00000+0  92106-4 0  9999
2 69587  55.1388 156.9166 0010123   2.4796 357.6227 14.15910316  4788
CENTISPACE-1 GROUP 05 O*
1 69588U 26138G   26201.88294201 -.00000085  00000+0  34452-4 0  9996
2 69588  55.1386 156.6321 0009410   2.8938 357.2089 14.16072449  4796
SPACEMOBILE-008         
1 69589U 26139A   26201.90052318  .00000318  00000+0  34863-4 0  9996
2 69589  52.9952 109.5048 0005259  70.1086 290.0472 15.12808185  5087
SPACEMOBILE-009         
1 69590U 26139B   26201.90288280  .00001150  00000+0  81934-4 0  9993
2 69590  52.9943 109.5135 0005555  66.3129 293.8445 15.12707117  5084
SPACEMOBILE-010         
1 69591U 26139C   26201.90661388  .00001095  00000+0  79125-4 0  9995
2 69591  52.9949 109.5396 0005539  58.9891 301.1643 15.12543979  5093
KUIPER-00423            
1 69592U 26140A   26201.37891334  .00016485  00000+0  43451-3 0  9996
2 69592  51.8792 237.9442 0013202 289.5860  70.3702 15.38560785  6342
KUIPER-00428            
1 69593U 26140B   26201.81294214  .00013201  00000+0  36847-3 0  9994
2 69593  51.8796 236.3415 0008122  48.9308 311.2380 15.37029240  6400
KUIPER-00481            
1 69594U 26140C   26201.58696149  .00004324  00000+0  12450-3 0  9992
2 69594  51.8786 237.0855 0010893 310.2671  49.7363 15.37897687  6370
KUIPER-00490            
1 69595U 26140D   26201.79173019  .00016527  00000+0  44485-3 0  9993
2 69595  51.8758 236.1933 0007350 358.5273   1.5691 15.37966683  6401
KUIPER-00493            
1 69596U 26140E   26201.91668981  .00040696  00000+0  14021-2 0  9991
2 69596  51.8826 236.0105 0008782  57.2904  70.9570 15.29591528  5826
KUIPER-00496            
1 69597U 26140F   26201.46194499  .00004563  00000+0  14757-3 0  9990
2 69597  51.8772 238.4717 0010979  68.8851 291.3307 15.34039227  6346
KUIPER-00513            
1 69598U 26140G   26201.46281296  .00011412  00000+0  30799-3 0  9998
2 69598  51.8789 237.7530 0007838 356.1197   3.9728 15.38226965  6352
KUIPER-00516            
1 69599U 26140H   26201.40804412  .00007293  00000+0  20439-3 0  9996
2 69599  51.8781 238.1256 0007396  13.1130 347.0048 15.37661206  6347
KUIPER-00517            
1 69600U 26140J   26201.44558600  .00016247  00000+0  42506-3 0  9996
2 69600  51.8759 237.6291 0010604 312.3615  47.6473 15.38832216  6354
KUIPER-00520            
1 69601U 26140K   26201.47372425  .00014325  00000+0  39019-3 0  9999
2 69601  51.8797 237.8292 0006918  12.7706 347.3455 15.37720467  6358
KUIPER-00522            
1 69602U 26140L   26201.37796947  .00016581  00000+0  43558-3 0  9997
2 69602  51.8770 237.9323 0012648 285.9720  73.9874 15.38666541  6342
KUIPER-00528            
1 69603U 26140M   26201.47706320  .00012599  00000+0  34782-3 0  9999
2 69603  51.8765 237.8372 0005730  21.6458 338.4770 15.37431260  6359
KUIPER-00532            
1 69604U 26140N   26201.49156928  .00016644  00000+0  46864-3 0  9994
2 69604  51.8777 237.9299 0005386  45.1343 315.0080 15.36570698  6356
KUIPER-00533            
1 69605U 26140P   26201.45843611  .00016373  00000+0  43530-3 0  9999
2 69605  51.8768 237.7184 0008086 346.1760  13.9005 15.38352154  6353
KUIPER-00534            
1 69606U 26140Q   26201.82698850  .00021929  00000+0  56941-3 0  9997
2 69606  51.8802 235.7020 0013373 289.1220  70.8319 15.38814753  6417
KUIPER-00537            
1 69607U 26140R   26201.91668981 -.02124323  00000+0 -76515-1 0  9993
2 69607  51.8800 236.2957 0008465  75.4886 282.8547 15.31428013  5725
KUIPER-00538            
1 69608U 26140S   26201.40597217  .00010367  00000+0  28468-3 0  9995
2 69608  51.8793 238.1190 0006847   1.2868 358.8136 15.37803546  6347
KUIPER-00540            
1 69609U 26140T   26201.81061103  .00013910  00000+0  38757-3 0  9990
2 69609  51.8814 236.3321 0006539  39.0306 321.1151 15.37046111  6406
KUIPER-00541            
1 69610U 26140U   26201.32813981  .00012802  00000+0  34357-3 0  9998
2 69610  51.8800 238.3571 0007716 336.9767  23.0873 15.38284409  6336
KUIPER-00542            
1 69611U 26140V   26201.91668981  .00044336  00000+0  11572-2 0  9992
2 69611  51.8768 235.4796 0007774 325.5471  62.9067 15.38343164  5449
KUIPER-00543            
1 69612U 26140W   26201.36049078  .00010842  00000+0  30587-3 0  9995
2 69612  51.8785 238.5466 0008069  53.1774 306.9952 15.36903174  6339
